{
  "type": "FeatureCollection",
  "features": [
    {
      "type": "Feature",
      "properties": {
        "norad_id": 37985,
        "name": "COSMOS 2251 DEB",
        "group": "cosmos-2251-debris",
        "lat": 37.772441059596176,
        "lon": -88.91777686396871,
        "alt_km": 756.2840720428212,
        "timestamp": "2025-12-16T19:34:24.666540+00:00",
        "meta_object_name": "COSMOS 2251 DEB",
        "meta_object_id": "1993-036BQL",
        "meta_epoch": "2025-12-14T12:11:43.486080",
        "meta_mean_motion": 14.35483597,
        "meta_eccentricity": 0.00208601,
        "meta_inclination": 74.0254,
        "meta_ra_of_asc_node": 262.4907,
        "meta_arg_of_pericenter": 24.7118,
        "meta_mean_anomaly": 335.5029,
        "meta_ephemeris_type": 0,
        "meta_classification_type": "U",
        "meta_norad_cat_id": 37985,
        "meta_element_set_no": 999,
        "meta_rev_at_epoch": 64942,
        "meta_bstar": 6.1585039e-05,
        "meta_mean_motion_dot": 1.51e-06,
        "meta_mean_motion_ddot": 0,
        "tle_line1": "1 37985U 93036BQL 25348.50814220  .00000151  00000+0  61585-4 0  9992",
        "tle_line2": "2 37985  74.0254 262.4907 0020860  24.7118 335.5029 14.35483597649426"
      },
      "geometry": {
        "type": "Point",
        "coordinates": [
          -88.91777686396871,
          37.772441059596176
        ]
      }
    },
    {
      "type": "Feature",
      "properties": {
        "norad_id": 37988,
        "name": "COSMOS 2251 DEB",
        "group": "cosmos-2251-debris",
        "lat": 8.317065440066465,
        "lon": -166.24501812207825,
        "alt_km": 687.3132532944928,
        "timestamp": "2025-12-16T19:34:24.666549+00:00",
        "meta_object_name": "COSMOS 2251 DEB",
        "meta_object_id": "1993-036BQP",
        "meta_epoch": "2025-12-15T01:56:17.446272",
        "meta_mean_motion": 14.68888628,
        "meta_eccentricity": 0.00634048,
        "meta_inclination": 74.0635,
        "meta_ra_of_asc_node": 19.4997,
        "meta_arg_of_pericenter": 56.3451,
        "meta_mean_anomaly": 304.3745,
        "meta_ephemeris_type": 0,
        "meta_classification_type": "U",
        "meta_norad_cat_id": 37988,
        "meta_element_set_no": 999,
        "meta_rev_at_epoch": 23430,
        "meta_bstar": 0.00052756318,
        "meta_mean_motion_dot": 3.15e-05,
        "meta_mean_motion_ddot": 0,
        "tle_line1": "1 37988U 93036BQP 25349.08075748  .00003150  00000+0  52756-3 0  9994",
        "tle_line2": "2 37988  74.0635  19.4997 0063404  56.3451 304.3745 14.68888628234309"
      },
      "geometry": {
        "type": "Point",
        "coordinates": [
          -166.24501812207825,
          8.317065440066465
        ]
      }
    },
    {
      "type": "Feature",
      "properties": {
        "norad_id": 37993,
        "name": "COSMOS 2251 DEB",
        "group": "cosmos-2251-debris",
        "lat": 2.926014115938525,
        "lon": -21.70853764775047,
        "alt_km": 690.3450649038969,
        "timestamp": "2025-12-16T19:34:24.666559+00:00",
        "meta_object_name": "COSMOS 2251 DEB",
        "meta_object_id": "1993-036BQU",
        "meta_epoch": "2025-12-15T18:05:44.274624",
        "meta_mean_motion": 14.59951171,
        "meta_eccentricity": 0.00219415,
        "meta_inclination": 74.0208,
        "meta_ra_of_asc_node": 161.1572,
        "meta_arg_of_pericenter": 249.6416,
        "meta_mean_anomaly": 110.2393,
        "meta_ephemeris_type": 0,
        "meta_classification_type": "U",
        "meta_norad_cat_id": 37993,
        "meta_element_set_no": 999,
        "meta_rev_at_epoch": 65361,
        "meta_bstar": 0.00087496413,
        "meta_mean_motion_dot": 4.181e-05,
        "meta_mean_motion_ddot": 0,
        "tle_line1": "1 37993U 93036BQU 25349.75398466  .00004181  00000+0  87496-3 0  9993",
        "tle_line2": "2 37993  74.0208 161.1572 0021941 249.6416 110.2393 14.59951171653619"
      },
      "geometry": {
        "type": "Point",
        "coordinates": [
          -21.70853764775047,
          2.926014115938525
        ]
      }
    },
    {
      "type": "Feature",
      "properties": {
        "norad_id": 37994,
        "name": "COSMOS 2251 DEB",
        "group": "cosmos-2251-debris",
        "lat": -31.94985631514041,
        "lon": -102.12062044097091,
        "alt_km": 749.9662138718322,
        "timestamp": "2025-12-16T19:34:24.666569+00:00",
        "meta_object_name": "COSMOS 2251 DEB",
        "meta_object_id": "1993-036BQV",
        "meta_epoch": "2025-12-15T20:22:44.092416",
        "meta_mean_motion": 14.39630668,
        "meta_eccentricity": 0.00230504,
        "meta_inclination": 74.0361,
        "meta_ra_of_asc_node": 269.9469,
        "meta_arg_of_pericenter": 348.814,
        "meta_mean_anomaly": 11.2499,
        "meta_ephemeris_type": 0,
        "meta_classification_type": "U",
        "meta_norad_cat_id": 37994,
        "meta_element_set_no": 999,
        "meta_rev_at_epoch": 77109,
        "meta_bstar": 0.00034031473,
        "meta_mean_motion_dot": 1.041e-05,
        "meta_mean_motion_ddot": 0,
        "tle_line1": "1 37994U 93036BQV 25349.84912144  .00001041  00000+0  34031-3 0  9998",
        "tle_line2": "2 37994  74.0361 269.9469 0023050 348.8140  11.2499 14.39630668771094"
      },
      "geometry": {
        "type": "Point",
        "coordinates": [
          -102.12062044097091,
          -31.94985631514041
        ]
      }
    },
    {
      "type": "Feature",
      "properties": {
        "norad_id": 37996,
        "name": "COSMOS 2251 DEB",
        "group": "cosmos-2251-debris",
        "lat": 6.1680861483563865,
        "lon": 14.257789368945703,
        "alt_km": 962.4989334429383,
        "timestamp": "2025-12-16T19:34:24.666580+00:00",
        "meta_object_name": "COSMOS 2251 DEB",
        "meta_object_id": "1993-036BQX",
        "meta_epoch": "2025-11-16T18:35:00.708864",
        "meta_mean_motion": 14.09591608,
        "meta_eccentricity": 0.02219827,
        "meta_inclination": 74.0658,
        "meta_ra_of_asc_node": 248.8308,
        "meta_arg_of_pericenter": 5.4709,
        "meta_mean_anomaly": 354.8776,
        "meta_ephemeris_type": 0,
        "meta_classification_type": "U",
        "meta_norad_cat_id": 37996,
        "meta_element_set_no": 999,
        "meta_rev_at_epoch": 55769,
        "meta_bstar": 0.0096790999,
        "meta_mean_motion_dot": 0.00021331,
        "meta_mean_motion_ddot": 0,
        "tle_line1": "1 37996U 93036BQX 25320.77431376  .00021331  00000+0  96791-2 0  9998",
        "tle_line2": "2 37996  74.0658 248.8308 0221982   5.4709 354.8776 14.09591608557693"
      },
      "geometry": {
        "type": "Point",
        "coordinates": [
          14.257789368945703,
          6.1680861483563865
        ]
      }
    },
    {
      "type": "Feature",
      "properties": {
        "norad_id": 37998,
        "name": "COSMOS 2251 DEB",
        "group": "cosmos-2251-debris",
        "lat": -42.75835608758081,
        "lon": -147.83103084568074,
        "alt_km": 732.9284155985224,
        "timestamp": "2025-12-16T19:34:24.666590+00:00",
        "meta_object_name": "COSMOS 2251 DEB",
        "meta_object_id": "1993-036BQZ",
        "meta_epoch": "2025-12-07T01:34:33.386016",
        "meta_mean_motion": 14.45444842,
        "meta_eccentricity": 0.00199405,
        "meta_inclination": 74.0387,
        "meta_ra_of_asc_node": 245.6796,
        "meta_arg_of_pericenter": 320.6712,
        "meta_mean_anomaly": 39.2997,
        "meta_ephemeris_type": 0,
        "meta_classification_type": "U",
        "meta_norad_cat_id": 37998,
        "meta_element_set_no": 999,
        "meta_rev_at_epoch": 64205,
        "meta_bstar": 0.00093558552,
        "meta_mean_motion_dot": 3.277e-05,
        "meta_mean_motion_ddot": 0,
        "tle_line1": "1 37998U 93036BQZ 25341.06566419  .00003277  00000+0  93559-3 0  9991",
        "tle_line2": "2 37998  74.0387 245.6796 0019940 320.6712  39.2997 14.45444842642056"
      },
      "geometry": {
        "type": "Point",
        "coordinates": [
          -147.83103084568074,
          -42.75835608758081
        ]
      }
    },
    {
      "type": "Feature",
      "properties": {
        "norad_id": 38001,
        "name": "COSMOS 2251 DEB",
        "group": "cosmos-2251-debris",
        "lat": 43.51205648035699,
        "lon": 140.0999785623065,
        "alt_km": 659.1501315452224,
        "timestamp": "2025-12-16T19:34:24.666600+00:00",
        "meta_object_name": "COSMOS 2251 DEB",
        "meta_object_id": "1993-036BRC",
        "meta_epoch": "2025-12-15T19:42:14.537376",
        "meta_mean_motion": 14.79113277,
        "meta_eccentricity": 0.00654168,
        "meta_inclination": 74.0014,
        "meta_ra_of_asc_node": 126.2535,
        "meta_arg_of_pericenter": 275.1808,
        "meta_mean_anomaly": 236.4371,
        "meta_ephemeris_type": 0,
        "meta_classification_type": "U",
        "meta_norad_cat_id": 38001,
        "meta_element_set_no": 999,
        "meta_rev_at_epoch": 74753,
        "meta_bstar": 0.00056649875,
        "meta_mean_motion_dot": 4.316e-05,
        "meta_mean_motion_ddot": 0,
        "tle_line1": "1 38001U 93036BRC 25349.82100159  .00004316  00000+0  56650-3 0  9990",
        "tle_line2": "2 38001  74.0014 126.2535 0065416 275.1808 236.4371 14.79113277747531"
      },
      "geometry": {
        "type": "Point",
        "coordinates": [
          140.0999785623065,
          43.51205648035699
        ]
      }
    }
  ]
}